1  4237U 69082E   20208.58449163 -.00000052 +00000-0 +31699-6 0  9995
2  4237 070.0155 018.0362 0018622 049.4230 014.0327 13.95519243586184
1  4237U 69082E   20208.88829269 -.00000053 +00000-0 -31756-6 0  9993
2  4237 070.0156 017.3877 0018626 048.9768 100.3398 13.95519220586229
1  4237U 69082E   20209.58791719 -.00000052 +00000-0 +53776-6 0  9993
2  4237 070.0156 015.8942 0018655 047.9625 015.2648 13.95519251586325
1  4237U 69082E   20209.89316146 -.00000040 +00000-0 +90203-5 0  9996
2  4237 070.0157 015.2426 0018666 047.5071 108.8297 13.95519292586368
1  4237U 69082E   20210.51838387 -.00000033 +00000-0 +14655-4 0  9991
2  4237 070.0158 013.9080 0018695 046.6090 009.9490 13.95519339586877
1  4237U 69082E   20210.88757006 -.00000026 +00000-0 +19568-4 0  9999
2  4237 070.0158 013.1200 0018712 046.0738 064.7461 13.95519335586509
1  4237U 69082E   20211.18655372 -.00000023 +00000-0 +21696-4 0  9998
2  4237 070.0159 012.4817 0018726 045.6374 126.8478 13.95519354586545
1  4237U 69082E   20211.72788351 -.00000021  00000-0  23251-4 0  9999
2  4237  70.0159  11.3262 0018744  44.8746 326.4756 13.95519358587048
1  4237U 69082E   20211.89110183 -.00000021 +00000-0 +23518-4 0  9995
2  4237 070.0159 010.9778 0018752 044.6397 066.4853 13.95519361586642
1  4237U 69082E   20212.59959597 -.00000021 +00000-0 +23133-4 0  9996
2  4237 070.0160 009.4655 0018779 043.6436 025.9410 13.95519427586746
1  4237U 69082E   20212.82120302 -.00000022  00000-0  22701-4 0  9997
2  4237  70.0160   8.9924 0018786  43.3240  59.2968 13.95519423587191
1  4237U 69082E   20212.89413535 -.00000026 +00000-0 +19584-4 0  9996
2  4237 070.0160 008.8367 0018789 043.2151 065.7131 13.95519407586784
1  4237U 69082E   20213.53038788 -.00000042 +00000-0 +76873-5 0  9994
2  4237 070.0161 007.4786 0018822 042.3051 022.2444 13.95519408586878
1  4237U 69082E   20213.82597899 -.00000046  00000-0  46651-5 0  9994
2  4237  70.0162   6.8477 0018831  41.8838  67.2918 13.95519391587334
1  4237U 69082E   20213.90718837 -.00000050 +00000-0 +18351-5 0  9991
2  4237 070.0161 006.6743 0018837 041.7591 115.2961 13.95519381586923
1  4237U 69082E   20214.91350573 -.00000059 +00000-0 -46029-5 0  9995
2  4237 070.0163 004.5263 0018886 040.3041 131.0480 13.95519421587061
1  4237U 69082E   20214.91350573 -.00000059 +00000-0 -46029-5 0  9995
2  4237 070.0163 004.5263 0018886 040.3041 131.0480 13.95519421587487
1  4237U 69082E   20215.83186865 -.00000063 +00000-0 -72811-5 0  9991
2  4237 070.0164 002.5661 0018919 038.9885 064.9028 13.95519405587196
1  4237U 69082E   20216.46744010 -.00000055  00000-0 -19485-5 0  9992
2  4237  70.0164   1.2094 0018948  38.0808  18.0107 13.95519446587700
1  4237U 69082E   20216.54090072 -.00000056 +00000-0 -26191-5 0  9996
2  4237 070.0164 001.0526 0018952 037.9755 027.0768 13.95519431587293
1  4237U 69082E   20217.47109153 -.00000042  00000-0  78970-5 0  9996
2  4237  70.0165 359.0671 0018987  36.6432  20.3548 13.95519494587849
1  4237U 69082E   20218.47457307 -.00000035  00000-0  12742-4 0  9990
2  4237  70.0166 356.9252 0019042  35.2287  21.8228 13.95519547587982
1  4237U 69082E   20218.68054800 -.00000032 +00000-0 +15008-4 0  9999
2  4237 070.0166 356.4855 0019051 034.9329 336.6415 13.95519547587591
1  4237U 69082E   20219.47989819 -.00000041 +00000-0 +86007-5 0  9992
2  4237 070.0167 354.7792 0019097 033.8022 032.5625 13.95519570587705
1  4237U 69082E   20219.47989819 -.00000041  00000-0  86007-5 0  9992
2  4237  70.0167 354.7792 0019097  33.8022  32.5625 13.95519570588122
1  4237U 69082E   20220.55633174 -.00000048  00000-0  35042-5 0  9993
2  4237  70.0168 352.4816 0019155  32.2746  40.5504 13.95519579588276
1  4237U 69082E   20220.77737912 -.00000046 +00000-0 +48567-5 0  9996
2  4237 070.0168 352.0098 0019158 031.9408 071.1093 13.95519569587886
1  4237U 69082E   20221.55999316 -.00000047 +00000-0 +41431-5 0  9995
2  4237 070.0169 350.3393 0019208 030.8375 042.9442 13.95519568587998
1  4237U 69082E   20221.79016748 -.00000042  00000-0  79569-5 0  9998
2  4237  70.0169 349.8480 0019222  30.5077 119.3399 13.95519576588440
1  4237U 69082E   20221.85715743 -.00000039 +00000-0 +99123-5 0  9990
2  4237 070.0169 349.7050 0019229 030.4353 095.8739 13.95519597588039
1  4237U 69082E   20222.62272633 -.00000027 +00000-0 +18674-4 0  9990
2  4237 070.0170 348.0710 0019254 029.3511 342.0796 13.95519647588145
1  4237U 69082E   20222.86468444 -.00000024 +00000-0 +20846-4 0  9994
2  4237 070.0170 347.5546 0019270 029.0140 117.6676 13.95519661588171
1  4237U 69082E   20223.08492855 -.00000024  00000-0  21268-4 0  9991
2  4237  70.0170 347.0845 0019286  28.7039 144.1685 13.95519664588626
1  4237U 69082E   20223.56420681 -.00000018 +00000-0 +25402-4 0  9999
2  4237 070.0170 346.0615 0019300 028.0330 032.0469 13.95519702588273
1  4237U 69082E   20223.86727458 -.00000010 +00000-0 +31230-4 0  9992
2  4237 070.0170 345.4146 0019316 027.6118 114.6467 13.95519760588315
1  4237U 69082E   20224.08829542 -.00000013  00000-0  29295-4 0  9995
2  4237  70.0170 344.9428 0019329  27.2982 145.0526 13.95519763588767
1  4237U 69082E   20224.62971280 -.00000020 +00000-0 +24005-4 0  9994
2  4237 070.0170 343.7872 0019360 026.5691 345.0873 13.95519757588424
1  4237U 69082E   20225.09181102 -.00000028  00000-0  17832-4 0  9990
2  4237  70.0170 342.8010 0019387  25.9186 146.6577 13.95519773588906
1  4237U 69082E   20225.50135986 -.00000039 +00000-0 +10151-4 0  9994
2  4237 070.0170 341.9268 0019408 025.3618 044.2016 13.95519771588548
1  4237U 69082E   20226.09527361 -.00000050  00000-0  23678-5 0  9993
2  4237  70.0170 340.6592 0019447  24.5227 148.0131 13.95519766589045
1  4237U 69082E   20226.27983808 -.00000049 +00000-0 +31064-5 0  9991
2  4237 070.0170 340.2653 0019456 024.2724 355.2513 13.95519803588652
1  4237U 69082E   20226.72787052 -.00000057 +00000-0 -27622-5 0  9999
2  4237 070.0170 339.3090 0019474 023.6306 086.1666 13.95519768588711
1  4237U 69082E   20227.09884625 -.00000059  00000-0 -49263-5 0  9991
2  4237  70.0170 338.5172 0019498  23.1048 149.9432 13.95519769589189
1  4237U 69082E   20227.56837855 -.00000061 +00000-0 -59714-5 0  9991
2  4237 070.0170 337.5151 0019515 022.4482 348.8578 13.95519756588837
1  4237U 69082E   20228.51292872 -.00000043  00000-0  70254-5 0  9992
2  4237  70.0170 335.4991 0019580  21.1782  54.1954 13.95519837589383
1  4237U 69082E   20228.58835882 -.00000041 +00000-0 +88676-5 0  9998
2  4237 070.0170 335.3381 0019583 021.0685 073.1579 13.95519836588976
1  4237U 69082E   20228.73537726 -.00000036 +00000-0 +12612-4 0  9991
2  4237 070.0170 335.0243 0019593 020.8666 091.7699 13.95519864588999
1  4237U 69082E   20229.59089081 -.00000019 +00000-0 +24798-4 0  9991
2  4237 070.0169 333.1984 0019641 019.6681 069.8439 13.95519963589118
1  4237U 69082E   20229.81504721 -.00000016  00000-0  27191-4 0  9996
2  4237  70.0169 332.7199 0019656  19.3642 115.9888 13.95519997589568
1  4237U 69082E   20230.59481243 -.00000019 +00000-0 +25106-4 0  9993
2  4237 070.0169 331.0556 0019694 018.3022 073.4752 13.95520006589257
1  4237U 69082E   20230.74167816 -.00000021 +00000-0 +23512-4 0  9999
2  4237 070.0168 330.7421 0019703 018.0952 091.3254 13.95520005589270
1  4237U 69082E   20231.52406550 -.00000035  00000-0  12978-4 0  9996
2  4237  70.0168 329.0721 0019754  17.0312  61.9836 13.95519985589802
1  4237U 69082E   20231.59860087 -.00000034 +00000-0 +13864-4 0  9996
2  4237 070.0168 328.9131 0019759 016.9349 076.4390 13.95519988589391
1  4237U 69082E   20231.74587701 -.00000035 +00000-0 +12977-4 0  9997
2  4237 070.0168 328.5987 0019769 016.7310 096.3474 13.95519993589416
1  4237U 69082E   20232.60257470 -.00000036 +00000-0 +12412-4 0  9995
2  4237 070.0167 326.7702 0019816 015.5362 080.3657 13.95520029589538
1  4237U 69082E   20232.67564922 -.00000035  00000-0  13192-4 0  9990
2  4237  70.0167 326.6142 0019822  15.4428  87.4809 13.95520039589969
1  4237U 69082E   20233.60607766 -.00000025 +00000-0 +20488-4 0  9993
2  4237 070.0166 324.6282 0019876 014.1539 081.9110 13.95520104589674
1  4237U 69082E   20233.97977241 -.00000017  00000-0  26428-4 0  9992
2  4237  70.0166 323.8306 0019907  13.6615 159.3113 13.95520163590148
1  4237U 69082E   20234.60972624 -.00000002 +00000-0 +37323-4 0  9993
2  4237 070.0166 322.4860 0019943 012.8062 084.1534 13.95520232589816
1  4237U 69082E   20234.68331385 -.00000001 +00000-0 +38289-4 0  9995
2  4237 070.0166 322.3289 0019947 012.7038 093.8546 13.95520240589826
1  4237U 69082E   20234.98314477  .00000002  00000-0  40484-4 0  9991
2  4237  70.0165 321.6890 0019967  12.3009 160.1793 13.95520283590282
1  4237U 69082E   20235.61386681 +.00000006 +00000-0 +42851-4 0  9992
2  4237 070.0165 320.3428 0020002 011.4680 088.8577 13.95520320589952
1  4237U 69082E   20235.68739992 +.00000005 +00000-0 +42161-4 0  9999
2  4237 070.0165 320.1858 0020007 011.3662 098.2847 13.95520323589960
1  4237U 69082E   20235.98671376  .00000001  00000-0  39685-4 0  9996
2  4237  70.0164 319.5469 0020028  10.9675 162.0083 13.95520345590420
1  4237U 69082E   20236.61712819 -.00000011 +00000-0 +30453-4 0  9991
2  4237 070.0163 318.2014 0020061 010.1406 089.1360 13.95520342590099
1  4237U 69082E   20236.69107450 -.00000015 +00000-0 +27677-4 0  9996
2  4237 070.0163 318.0435 0020067 010.0379 100.6392 13.95520333590104
1  4237U 69082E   20237.17382094 -.00000023  00000-0  22217-4 0  9993
2  4237  70.0162 317.0131 0020099   9.3650   5.9404 13.95520383590592
1  4237U 69082E   20237.54908609 -.00000028 +00000-0 +17992-4 0  9999
2  4237 070.0162 316.2122 0020120 008.8489 091.2525 13.95520396590228
1  4237U 69082E   20237.69490269 -.00000026 +00000-0 +19403-4 0  9990
2  4237 070.0161 315.9009 0020132 008.6696 103.8062 13.95520443590249
1  4237U 69082E   20238.17819927 -.00000034  00000-0  13840-4 0  9998
2  4237  70.0160 314.8694 0020163   8.0113  11.8560 13.95520479590732
1  4237U 69082E   20238.55133571 -.00000038 +00000-0 +10813-4 0  9995
2  4237 070.0160 314.0729 0020187 007.5231 086.4484 13.95520470590367
